City,Country,Subcountry,Geonameid
Baalbek,Lebanon,Baalbek-Hermel,277130
Baao,Philippines,Bicol,1729814
Baar,Switzerland,Zug,2661653
Baardheere,Somalia,Gedo,65170
Baarn,Netherlands,Utrecht,2759544
Bab Ezzouar,Algeria,Alger,2505854
Babaeski,Turkey,Kırklareli,751371
Babahoyo,Ecuador,Los Ríos,3660418
Babana,Nigeria,Niger,2348507
Babat,Indonesia,East Java,1650888
Babati,Tanzania,Manyara,161312
Babenhausen,Germany,Hesse,2953770
Baberu,India,Uttar Pradesh,1278064
Babijn,Aruba,N/A,3577277
Babo-Pangulo,Philippines,Central Luzon,1729734
BABOR - VILLE,Algeria,Sétif,6698360
Babruysk,Belarus,Mogilev,630468
Babu,China,Guangxi Zhuangzu Zizhiqu,1817858
Babushkin,Russia,Moscow,579870
Bacabal,Brazil,Maranhão,3406910
Bachhraon,India,Uttar Pradesh,1278036
Back Mountain,United States,Pennsylvania,5178800
Backnang,Germany,Baden-Württemberg,2953568
Bacoli,Italy,Campania,3182599
Bacolod City,Philippines,Western Visayas,1729564
Bacoor,Philippines,Calabarzon,1729524
Bad Aibling,Germany,Bavaria,2953558
Bad Arolsen,Germany,Hesse,2955421
Bad Bentheim,Germany,Lower Saxony,2953552
Bad Berleburg,Germany,North Rhine-Westphalia,2953545
Bad Driburg,Germany,North Rhine-Westphalia,2953525
Bad Essen,Germany,Lower Saxony,2953464
Bad Harzburg,Germany,Lower Saxony,2953449
Bad Hersfeld,Germany,Hesse,2953439
Bad Honnef,Germany,North Rhine-Westphalia,2953435
Bad Kissingen,Germany,Bavaria,2953424
Bad Kreuznach,Germany,Rheinland-Pfalz,2953416
Bad Laasphe,Germany,North Rhine-Westphalia,2882091
Bad Langensalza,Germany,Thuringia,2953413
Bad Lippspringe,Germany,North Rhine-Westphalia,2953405
Bad Mergentheim,Germany,Baden-Württemberg,2953402
Bad Nauheim,Germany,Hesse,2953395
Bad Neuenahr-Ahrweiler,Germany,Rheinland-Pfalz,2953391
Bad Neustadt an der Saale,Germany,Bavaria,2953389
Bad Oeynhausen,Germany,North Rhine-Westphalia,2953386
Bad Oldesloe,Germany,Schleswig-Holstein,2953385
Bad Pyrmont,Germany,Lower Saxony,2953379
Bad Rappenau,Germany,Baden-Württemberg,2953374
Bad Reichenhall,Germany,Bavaria,2953371
Bad Salzuflen,Germany,North Rhine-Westphalia,2953358
Bad Salzungen,Germany,Thuringia,2953357
Bad Schwartau,Germany,Schleswig-Holstein,2953347
Bad Segeberg,Germany,Schleswig-Holstein,2953341
Bad Soden am Taunus,Germany,Hesse,2953339
Bad Vilbel,Germany,Hesse,2953321
Bad Waldsee,Germany,Baden-Württemberg,2953320
Bad Wildungen,Germany,Hesse,2953317
Bad Zwischenahn,Germany,Lower Saxony,2953310
Badagara,India,Kerala,1278023
Badagry,Nigeria,Lagos,2348395
Badajoz,Spain,Extremadura,2521420
Badalona,Spain,Catalonia,3129028
Badarganj,Bangladesh,Rangpur Division,1185283
Baddi,India,Himachal Pradesh,7279742
Baddomalhi,Pakistan,Punjab,1184075
Baden,Switzerland,Aargau,2661646
Baden,Austria,Lower Austria,2782067
Baden-Baden,Germany,Baden-Württemberg,2953504
Badger,United States,Alaska,5879898
Badlapur,India,Maharashtra,1277976
Badou,Togo,Plateaux,2367660
Badulla,Sri Lanka,Uva,1250615
Badvel,India,Andhra Pradesh,1277949
Baekrajan,Indonesia,Central Java,1650815
Baena,Spain,Andalusia,2521415
Baesweiler,Germany,North Rhine-Westphalia,2953302
Baeza,Spain,Andalusia,2521413
Bafang,Cameroon,West,2235196
Bafia,Cameroon,Centre,2235194
Bafilo,Togo,Kara,2367656
Bafoussam,Cameroon,West,2235189
Bafra,Turkey,Samsun,751335
Bagaha,India,Bihar,1277939
Bagaha,India,Bihar,1277940
Bagalkot,India,Karnataka,1277936
Bagamoyo,Tanzania,Pwani,161290
Bagan Serai,Malaysia,Perak,1734409
Bagar,India,Rajasthan,1277930
Bagasra,India,Gujarat,1277924
Bagayevskaya,Russia,Rostov,579771
Baggabag B,Philippines,Cagayan Valley,1729324
Baghdad,Iraq,Mayorality of Baghdad,98182
Bagheria,Italy,Sicily,2525628
Bagneux,France,Île-de-France,3035409
Bagnolet,France,Île-de-France,3035403
Bagnoli,Italy,Campania,3182518
Bago,Myanmar,Bago,1300466
Bago City,Philippines,Western Visayas,1729085
Bagong Pagasa,Philippines,Calabarzon,1966336
Bagua Grande,Peru,Amazonas,3699484
Baguim do Monte,Portugal,Porto,2742506
Baguio,Philippines,Cordillera,1728930
Baharampur,India,West Bengal,1277820
Baharly,Turkmenistan,Ahal,162158
Bahau,Malaysia,Negeri Sembilan,1734839
Bah-Bah,Philippines,Caraga,1728825
Baheri,India,Uttar Pradesh,1277814
Bahir Dar,Ethiopia,Amhara,342884
Bahjoi,India,Uttar Pradesh,1277808
Bahraigh,India,Uttar Pradesh,1277799
Bahula,India,West Bengal,7302862
Baia Mare,Romania,Maramureş,685826
Baia Mare,Romania,Satu Mare,6697993
Baia Sprie,Romania,Maramureş,685823
Baicheng,China,Jilin Sheng,2038569
Baidoa,Somalia,Bay,64536
Baie-Comeau,Canada,Quebec,5889745
Baie-Mahault,Guadeloupe,Guadeloupe,3579767
Baiersbronn,Germany,Baden-Württemberg,2953197
Baihar,India,Madhya Pradesh,1277776
Baihe,China,Guangxi Zhuangzu Zizhiqu,1817701
Baijiantan,China,Xinjiang Uygur Zizhiqu,1529626
Baildon,United Kingdom,England,2656627
Bail-Hongal,India,Karnataka,1277765
Bainbridge Island,United States,Washington,5816320
Baiquan,China,Heilongjiang Sheng,2038541
Bais,Philippines,Central Visayas,1728772
Baise City,China,Guangxi Zhuangzu Zizhiqu,1816269
Baishan,China,Jilin Sheng,2038584
Baishishan,China,Jilin Sheng,2038529
Baixo Guandu,Brazil,Espírito Santo,3471061
Baiyin,China,Gansu Sheng,1817240
Baj Baj,India,West Bengal,1277723
Baja,Hungary,Bács-Kiskun,3055685
Bajos de Haina,Dominican Republic,San Cristóbal,3512128
Bakal,Russia,Chelyabinsk,579738
Bakau,Gambia,Banjul,2413920
Bakersfield,United States,California,5325738
Bakhchysaray,Ukraine,Crimea,712969
Bakhmach,Ukraine,Chernihiv,712967
Baki,Indonesia,Central Java,1650670
Baki,Somalia,Awdal,8045596
Bako,Ethiopia,"Southern Nations, Nationalities, and People's Region",342856
Bakri,Malaysia,Johor,1732871
Baksan,Russia,Kabardino-Balkariya,579574
Balabanovo,Russia,Kaluga,579529
Balad,Iraq,Salah ad Din Governorate,98112
Balagtas,Philippines,Central Luzon,1728584
Balaguer,Spain,Catalonia,3128978
Balaipungut,Indonesia,Riau,1650600
Balaka,Malawi,Southern Region,931865
Balaklava,Ukraine,Misto Sevastopol’,712930
Balakliya,Ukraine,Kharkiv,712926
Balakovo,Russia,Saratov,579492
Balamban,Philippines,Central Visayas,1728546
Balanga,Philippines,Central Luzon,1728523
Balapulang,Indonesia,Central Java,1650572
Balashikha,Russia,MO,579464
Balashov,Russia,Saratov,579460
Balasore,India,Odisha,1277599
Balassagyarmat,Hungary,Nógrád,3055601
Balayan,Philippines,Calabarzon,1728336
Balbriggan,Ireland,Leinster,2966794
Balch Springs,United States,Texas,4672059
Baldwin,United States,New York,5107760
Baldwin,United States,Pennsylvania,5178940
Baldwin Park,United States,California,5325866
Balen,Belgium,Flanders,2802743
Balezino,Russia,Udmurtiya,579432
Balfour,South Africa,Mpumalanga,1021396
Bali,Cameroon,North-West Province,2235029
Balikpapan,Indonesia,East Kalimantan,1650527
Balingen,Germany,Baden-Württemberg,2953089
Baliuag,Philippines,Central Luzon,1727995
Balkanabat,Turkmenistan,Balkan,161616
Balkh,Afghanistan,Balkh,1147290
Ballarat,Australia,Victoria,2177091
Ballenger Creek,United States,Maryland,4347839
Ballerup,Denmark,Capital Region,2624341
Ballitoville,South Africa,KwaZulu-Natal,1021360
Ballwin,United States,Missouri,4375663
Ballymena,United Kingdom,Northern Ireland,2656490
Balma,France,Languedoc-Roussillon-Midi-Pyrénées,3035204
Balod,India,Chhattisgarh,1277535
Balqash,Kazakhstan,Qaraghandy,1525798
Balsas,Brazil,Maranhão,3406545
Balta,Ukraine,Odessa,712886
Baltimore,United States,Maryland,4347778
Baltiysk,Russia,Kaliningrad,2609906
Balung,Indonesia,East Java,1650460
Balwyn North,Australia,Victoria,7932629
Balykchy,Kyrgyzstan,Ysyk-Köl,1527004
Balyqshy,Kazakhstan,Atyraū,610445
Balzar,Ecuador,Guayas,3660361
Bam,Iran,Kerman,141736
Bama,Nigeria,Borno,2347954
Bamako,Mali,Bamako,2460596
Bambang,Philippines,Cagayan Valley,1727663
Bambanglipuro,Indonesia,Daerah Istimewa Yogyakarta,1650434
Bambari,Central African Republic,Ouaka,240604
Bamberg,Germany,Bavaria,2952984
Bamenda,Cameroon,North-West Province,2234974
Bamiantong,China,Heilongjiang Sheng,2038482
Bamusso,Cameroon,South-West Province,2234941
Ban Bang Kadi Pathum Thani,Thailand,Phra Nakhon Si Ayutthaya,1620875
Ban Bueng,Thailand,Chon Buri,1620371
Ban Chalong,Thailand,Phuket,7091861
Ban Chang,Thailand,Rayong,1620254
Ban Dung,Thailand,Changwat Udon Thani,1619650
Ban Houakhoua,Laos,Bokeo Province,1904391
Ban Huai Thalaeng,Thailand,Nakhon Ratchasima,1603235
Ban Khlong Bang Sao Thong,Thailand,Samut Prakan,1604452
Ban Lam Luk Ka,Thailand,Pathum Thani,1617111
Ban Mai,Thailand,Songkhla,1601579
Ban Mo,Thailand,Sara Buri,1616658
Ban Na,Thailand,Sukhothai,1156257
Ban Na San,Thailand,Surat Thani,1156046
Ban Nong Wua So,Thailand,Changwat Udon Thani,1599640
Ban Phaeo,Thailand,Samut Sakhon,1614465
Ban Phai,Thailand,Khon Kaen,1614455
Ban Phan Don,Thailand,Changwat Udon Thani,1614336
Ban Pong,Thailand,Ratchaburi,1155139
Ban Rangsit,Thailand,Pathum Thani,1613769
Ban Ratsada,Thailand,Phuket,7091912
Ban Selaphum,Thailand,Roi Et,1613284
Ban Tak,Thailand,Tak,1154677
Ban Talat Bueng,Thailand,Chon Buri,1620442
Ban Talat Nua,Thailand,Phuket,1117656
Ban Talat Yai,Thailand,Phuket,1117652
Banamba,Mali,Koulikoro,2460546
Banat,India,Uttar Pradesh,1277409
Banaybanay,Philippines,Calabarzon,1727522
Banaz,Turkey,Uşak,322051
Banbridge,United Kingdom,Northern Ireland,2656407
Banbury,United Kingdom,England,2656406
Banda,India,Madhya Pradesh,1277398
Banda Aceh,Indonesia,Aceh,1215502
Bandar,Indonesia,North Sumatra,1215498
Bandar Labuan,Malaysia,Sabah,7302815
Bandar Lampung,Indonesia,Lampung,1624917
Bandar Seri Begawan,Brunei,Brunei and Muara,1820906
Bandar-e Lengeh,Iran,Hormozgan,141665
Bandeirantes,Brazil,Paraná,3470912
Banderilla,Mexico,Veracruz,3532414
Bandipura,India,Kashmir,1277358
Bandundu,Democratic Republic of the Congo,Bandundu,2317397
Bandung,Indonesia,West Java,1650357
Banes,Cuba,Holguín,3567869
Banfora,Burkina Faso,Cascades,2362909
Bang Ban,Thailand,Phra Nakhon Si Ayutthaya,1619616
Bang Bo District,Thailand,Samut Prakan,1620919
Bang Bua Thong,Thailand,Nonthaburi,1619602
Bang Krathum,Thailand,Phitsanulok,1619437
Bang Kruai,Thailand,Nonthaburi,1619434
Bang Lamung,Thailand,Chon Buri,1619423
Bang Len,Thailand,Nakhon Pathom,1619415
Bang Mun Nak,Thailand,Phichit,1619400
Bang Pa-in,Thailand,Phra Nakhon Si Ayutthaya,1619369
Bang Pakong,Thailand,Chachoengsao,1619363
Bang Phae,Thailand,Ratchaburi,1157683
Bang Racham,Thailand,Sing Buri,1619281
Bang Rakam,Thailand,Phitsanulok,1619276
Bang Saphan,Thailand,Prachuap Khiri Khan,1157662
Banga,India,Punjab,1277338
Banganapalle,India,Andhra Pradesh,1277330
Bangaon,India,Bihar,1277322
Bangaon,India,West Bengal,1277324
Bangassou,Central African Republic,Mbomou,240498
Bangil,Indonesia,East Java,1650319
Bangkalan,Indonesia,East Java,1650298
Bangkok,Thailand,Bangkok,1609350
Bangolo,Ivory Coast,Dix-Huit Montagnes,2292179
Bangor,United Kingdom,Northern Ireland,2656396
Bangor,United Kingdom,Wales,2656397
Bangor,United States,Maine,4957280
Bangui,Central African Republic,Bangui,2389853
Baniachang,Bangladesh,Sylhet,1185274
Banikoara,Benin,Alibori,2395317
Banja Luka,Bosnia and Herzegovina,Republika Srpska,3204541
Banjar,Indonesia,Bali,1650232
Banjar,Indonesia,West Java,1650234
Banjaran,Indonesia,West Java,1650227
Banjarmasin,Indonesia,South Kalimantan,1650213
Banjul,Gambia,Banjul,2413876
Bankra,India,West Bengal,1348747
Bankstown,Australia,New South Wales,2176947
Banmankhi,India,Bihar,1277263
Banning,United States,California,5326032
Bannu,Pakistan,Khyber Pakhtunkhwa,1183460
Banora Point,Australia,New South Wales,2176934
Banqiao,Taiwan,Taipei,1670029
Bansalan,Philippines,Davao,1727080
Banstead,United Kingdom,England,2656379
Bantayan,Philippines,Central Visayas,1727043
Banting,Malaysia,Selangor,1734781
Bantul,Indonesia,Daerah Istimewa Yogyakarta,1650119
Banyo,Cameroon,Adamaoua,2234794
Banyoles,Spain,Catalonia,3128885
Banyumas,Indonesia,Central Java,1650095
Banyuwangi,Indonesia,East Java,1650077
Baoding,China,Hebei,1816971
Baoqing,China,Heilongjiang Sheng,2038446
Baoshan,China,Heilongjiang Sheng,2038438
Baotou,China,Inner Mongolia,2038432
Baoying,China,Jiangsu,1816890
Baqubah,Iraq,Diyālá,97990
Bar,Ukraine,Vinnyts'ka,712861
Bar,Montenegro,Bar,3204509
Bar Bigha,India,Bihar,1277038
Barabai,Indonesia,South Kalimantan,1650064
Barabinsk,Russia,Novosibirsk,1510916
Baracoa,Cuba,Guantánamo,3567834
Barajas de Madrid,Spain,Madrid,3128832
Barakaldo,Spain,Basque Country,3109453
Baraki,Algeria,Tipaza,2505653
Baranagar,India,West Bengal,1277082
Baranoa,Colombia,Atlántico,3689235
Baranovichi,Belarus,Brest,630429
Baras,Philippines,Calabarzon,1726765
Barauli,India,Bihar,1277053
Baraut,India,Uttar Pradesh,1277044
Barbacena,Brazil,Minas Gerais,3470858
Barbacha,Algeria,Bejaïa,2505651
Barbalha,Brazil,Ceará,3406442
Barbastro,Spain,Aragon,3128795
Barbate de Franco,Spain,Andalusia,2521335
Barberena,Guatemala,Santa Rosa,3599582
Barberton,South Africa,Mpumalanga,1021086
Barberton,United States,Ohio,5146491
Barbil,India,Odisha,7279597
Barbosa,Colombia,Antioquia,3689205
Barbosa,Colombia,Santander,3689206
Barcarena,Brazil,Pará,3406429
Barcellona Pozzo di Gotto,Italy,Sicily,2525597
Barcelona,Spain,Catalonia,3128760
Barcelona,Venezuela,Anzoátegui,3648559
Barceloneta,Puerto Rico,Barceloneta,4562768
Barcelos,Portugal,Braga,2742416
Bardejov,Slovakia,Prešovský,725168
Bareggio,Italy,Lombardy,3182361
Bareilly,India,Uttar Pradesh,1277013
Barendrecht,Netherlands,South Holland,2759426
Barentu,Eritrea,Gash Barka,342711
Bargarh,India,Odisha,1276988
Bargi,India,Madhya Pradesh,1276982
Barhiya,India,Bihar,1276954
Bari,Italy,Apulia,3182351
Bariadi,Tanzania,Simiyu,161218
Barika,Algeria,Batna,2505629
Barinas,Venezuela,Barinas,3648546
Barinitas,Venezuela,Barinas,3648540
Bariri,Brazil,São Paulo,3470825
Barjala,India,Tripura,1276938
Barki Saria,India,Jharkhand,1276919
Barking,United Kingdom,England,2656333
Bar-le-Duc,France,Alsace-Champagne-Ardenne-Lorraine,3034911
Barletta,Italy,Apulia,3182340
Barmbek-Nord,Germany,Hamburg,7932342
Barnaul,Russia,Altai Krai,1510853
Barnet,United Kingdom,England,2656295
Barneveld,Netherlands,Gelderland,2759407
Barnsley,United Kingdom,England,2656284
Barnstable,United States,Massachusetts,4929771
Barnstaple,United Kingdom,England,2656281
Baro,Nigeria,Niger,2347592
Barpeta,India,Assam,1276867
Barpeta Road,India,Assam,7302849
Barquisimeto,Venezuela,Lara,3648522
Barra,Brazil,Bahia,3470821
Barra Bonita,Brazil,São Paulo,3470776
Barra do Bugres,Brazil,Mato Grosso,3470718
Barra do Corda,Brazil,Maranhão,3406318
Barra dos Coqueiros,Brazil,Sergipe,3470674
Barra Mansa,Brazil,Rio de Janeiro,3470636
Barra Velha,Brazil,Santa Catarina,3470597
Barranca,Peru,Lima region,3946820
Barrancabermeja,Colombia,Santander,3689169
Barrancas,Colombia,La Guajira,3689162
Barranqueras,Argentina,Chaco,3436124
Barranquilla,Colombia,Atlántico,3689147
Barras,Brazil,Piauí,3406263
Barreiras,Brazil,Bahia,3470583
Barreirinhas,Brazil,Maranhão,3406196
Barreiro,Portugal,Setúbal,2271071
Barreiros,Brazil,Pernambuco,3406160
Barretos,Brazil,São Paulo,3470451
Barrhead,United Kingdom,Scotland,2656258
Barrie,Canada,Ontario,5894171
Barrington,United States,Rhode Island,5220798
Barrinha,Brazil,São Paulo,3470428
Barroso,Brazil,Minas Gerais,3470369
Barrow in Furness,United Kingdom,England,2656241
Barry,United Kingdom,Wales,2656235
Barstow,United States,California,5326297
Barstow Heights,United States,California,5326305
Bartlesville,United States,Oklahoma,4529987
Bartlett,United States,Tennessee,4604183
Bartlett,United States,Illinois,4884141
Bartley Green,United Kingdom,England,7302130
Bartoszyce,Poland,Warmian-Masurian Voivodeship,776337
Bartow,United States,Florida,4146723
Barueri,Brazil,São Paulo,3470353
Baruta,Venezuela,Miranda,3648439
Baruun-Urt,Mongolia,Sühbaatar,2032614
Barysh,Russia,Ulyanovsk,578931
Basauri,Spain,Basque Country,6697039
Basel,Switzerland,Basel-City,2661604
Bashanet,Tanzania,Manyara,161204
Basi,India,Punjab,1276764
Basi,India,Punjab,1276765
Basi,India,Rajasthan,1276767
Basildon,United Kingdom,England,2656194
Basingstoke,United Kingdom,England,2656192
Baskil,Turkey,Elazığ,321929
Basmat,India,Maharashtra,1276757
Basni,India,Rajasthan,1276754
Basoko,Democratic Republic of the Congo,Eastern Province,219414
Basotu,Tanzania,Manyara,161197
Basrah,Iraq,Basra Governorate,99532
Bassano del Grappa,Italy,Veneto,3182297
Bassar,Togo,Kara,2367568
Basseterre,Saint Kitts and Nevis,Saint George Basseterre,3575551
Basse-Terre,Guadeloupe,Guadeloupe,3579732
Bassila,Benin,Donga,2395261
Bassum,Germany,Lower Saxony,2952252
Bastia,France,Corsica,3034640
Bastia umbra,Italy,Umbria,3182289
Bastos,Brazil,São Paulo,3470341
Baswa,India,Rajasthan,1276724
Bat Khela,Pakistan,Khyber Pakhtunkhwa,1183090
Bat Yam,Israel,Tel Aviv,295548
Bata,Equatorial Guinea,Litoral,2310046
Batac City,Philippines,Ilocos,1726339
Batang,Indonesia,Central Java,1649881
Batang Berjuntai,Malaysia,Selangor,1732892
Batangafo,Central African Republic,Ouham,2389691
Batangas,Philippines,Calabarzon,1726280
Batatais,Brazil,São Paulo,3470324
Batavia,United States,Illinois,4884192
Batavia,United States,New York,5108093
Bataysk,Russia,Rostov,578740
Bath,United Kingdom,England,2656173
Bathgate,United Kingdom,Scotland,2656169
Bathurst,Australia,New South Wales,2176632
Batikent,Turkey,Ankara,442301
Batley,United Kingdom,England,2656168
Batman,Turkey,Batman,321836
Batna,Algeria,Batna,2505572
Bato,Philippines,Bicol,1726156
Baton Rouge,United States,Louisiana,4315588
Batouri,Cameroon,East,2234663
Battambang,Cambodia,Battambang,1831797
Battaramulla South,Sri Lanka,Western,1250164
Battersea,United Kingdom,England,6690602
Batticaloa,Sri Lanka,Eastern Province,1250161
Battipaglia,Italy,Campania,3182272
Battle Creek,United States,Michigan,4985153
Battle Ground,United States,Washington,5786485
Batu,Indonesia,East Java,1649824
Batu Arang,Malaysia,Selangor,1732893
Batu Berendam,Malaysia,Melaka,1780890
Batu Gajah,Malaysia,Perak,1735268
Batu Pahat,Malaysia,Johor,1732687
Batumi,Georgia,Ajaria,615532
Baturaden,Indonesia,Central Java,1649595
Baturaja,Indonesia,South Sumatra,1649593
Bauan,Philippines,Calabarzon,1725991
Bauang,Philippines,Ilocos,1725983
Baucau,East Timor,Baucau,1649539
Bauchi,Nigeria,Bauchi,2347470
Bauda,India,Odisha,1276686
Baulkham Hills,Australia,New South Wales,2176592
Baumschulenweg,Germany,Berlin,2951935
Baunatal,Germany,Hesse,2951923
Bauru,Brazil,São Paulo,3470279
Bauta,Cuba,Artemisa,3567612
Bautzen,Germany,Saxony,2951881
Bavly,Russia,Tatarstan,578638
Bawku,Ghana,Upper East,2303287
Bawshar,Oman,Muḩāfaz̧at Masqaţ,288764
Bay,Philippines,Calabarzon,1725919
Bay City,United States,Michigan,4985180
Bay Point,United States,California,5326561
Bay Shore,United States,New York,5108169
Bay Village,United States,Ohio,5146675
Bayaguana,Dominican Republic,Monte Plata,3511626
Bayambang,Philippines,Ilocos,1725863
Bayamo,Cuba,Granma,3567597
Bayan,China,Heilongjiang Sheng,2038421
Bayanhongor,Mongolia,Bayanhongor,2032532
Bayanhongor,Mongolia,Bayanhongor,2032533
Bayawan,Philippines,Central Visayas,1725804
Baybay,Philippines,Eastern Visayas,1725799
Bayburt,Turkey,Bayburt,750938
Bayeux,France,Normandy,3034483
Bayeux,Brazil,Paraíba,3405940
Baykonyr,Kazakhstan,Bayqongyr Qalasy,1521368
Baymak,Russia,Bashkortostan,578534
Baynjiwayn,Iraq,As Sulaymānīyah,98012
Bayombong,Philippines,Cagayan Valley,1725729
Bayonet Point,United States,Florida,4146901
Bayonne,France,Aquitaine-Limousin-Poitou-Charentes,3034475
Bayonne,United States,New Jersey,5095445
Bayou Cane,United States,Louisiana,4315768
Bayramaly,Turkmenistan,Mary,1219762
Bayreuth,Germany,Bavaria,2951825
Bayshore Gardens,United States,Florida,4146934
Bayside,United States,California,5559320
Bayswater,United Kingdom,England,6545243
Baytown,United States,Texas,4672731
Bayugan,Philippines,Caraga,1725684
Baza,Spain,Andalusia,2521215
Bazar-Korgon,Kyrgyzstan,Jalal-Abad,1528717
Beacon,United States,New York,5108219
Beaconsfield,Canada,Quebec,5895650
Bealanana,Madagascar,Sofia,1068670
Bear,United States,Delaware,4141363
Bearsden,United Kingdom,Scotland,2656086
Beaufort,Malaysia,Sabah,1733874
Beaufort West,South Africa,Western Cape,1020641
Beaumont,United States,Texas,4672989
Beaumont,United States,California,5327098
Beaune,France,Bourgogne-Franche-Comté,3034126
Beauvais,France,Nord-Pas-de-Calais-Picardie,3034006
Beaver Dam,United States,Wisconsin,5245193
Beavercreek,United States,Ohio,4506008
Beaverton,United States,Oregon,5713376
Bebedouro,Brazil,São Paulo,3470264
Beberibe,Brazil,Ceará,3405924
Bebington,United Kingdom,England,2656070
Beckenham,United Kingdom,England,2656065
Beckingen,Germany,Saarland,2951679
Beckum,Germany,North Rhine-Westphalia,2951654
Becontree,United Kingdom,England,6690870
Bedburg,Germany,North Rhine-Westphalia,2951648
Bedford,United Kingdom,England,2656046
Bedford,United States,Texas,4673094
Bedford,United States,New Hampshire,5083221
Bedi,India,Gujarat,1276627
Bedlington,United Kingdom,England,2656039
Bedong,Malaysia,Kedah,1734439
Bedworth,United Kingdom,England,2656031
Beek,Netherlands,Limburg,2759350
Beerse,Belgium,Flanders,2802435
Beersel,Belgium,Flanders,2802433
Beersheba,Israel,Southern District,295530
Begamganj,India,Madhya Pradesh,1276621
Begoro,Ghana,Eastern,2303236
Begusarai,India,Bihar,1276609
Behat,India,Uttar Pradesh,1276600
Behror,India,Rajasthan,1276589
Behshahr,Iran,Māzandarān,140918
Beibei,China,Chongqing Shi,1816790
Beichengqu,China,Inner Mongolia,2037391
Beidaihehaibin,China,Hebei,1816753
Beidao,China,Gansu Sheng,1816751
Beihai,China,Guangxi Zhuangzu Zizhiqu,1816705
Beijing,China,Beijing,1816670
Beipiao,China,Liaoning,2038342
Beira,Mozambique,Sofala,1052373
Beirut,Lebanon,Beyrouth,276781
Beitbridge,Zimbabwe,Matabeleland South,895269
Beja,Portugal,Beja,2270985
Bejucal,Cuba,Mayabeque,3567546
Bekalta,Tunisia,Al Munastīr,2473826
Bekasi,Indonesia,West Java,1649378
Bekobod,Uzbekistan,Toshkent,1514402
Bektemir,Uzbekistan,Toshkent Shahri,1514396
Bel Air North,United States,Maryland,7257991
Bel Air South,United States,Maryland,7257992
Bela,Pakistan,Balochistān,1182998
Bela,India,Uttar Pradesh,1276574
Bela Vista,Brazil,Mato Grosso do Sul,3470177
Belalcazar,Colombia,Cauca,3673398
Belas,Portugal,Lisbon,2270981
Belawan,Indonesia,North Sumatra,1215412
Belaya Glina,Russia,Krasnodarskiy,578169
Belaya Kalitva,Russia,Rostov,578155
Belebey,Russia,Bashkortostan,578120
Beledweyne,Somalia,Hiiraan,64460
Belek,Turkey,Antalya,321580
Belen,Turkey,Hatay,321572
Belfast,United Kingdom,Northern Ireland,2655984
Belford Roxo,Brazil,Rio de Janeiro,3470142
Belfort,France,Bourgogne-Franche-Comté,3033791
Belgaum,India,Karnataka,1276533
Belgorod,Russia,Belgorod,578072
Belgrade,Serbia,Central Serbia,792680
Beli,Nigeria,Taraba,2347330
Belidzhi,Russia,Dagestan,828055
Belize City,Belize,Belize,3582677
Bell,United States,California,5327298
Bell Gardens,United States,California,5327319
Bella Vista,Dominican Republic,Nacional,3511550
Bella Vista,United States,Arkansas,4101114
Bellaire,United States,Texas,4673353
Bellampalli,India,Telangana,7302806
Bellaria-Igea Marina,Italy,Emilia-Romagna,8224092
Bellary,India,Karnataka,1276509
Bellavista,Peru,San Martín,3699364
Belle Glade,United States,Florida,4147241
Bellechasse Regional County Municipality,Canada,Quebec,7302647
Belleville,United States,Illinois,4233813
Belleville,United States,New Jersey,5095549
Belleville,Canada,Ontario,5897884
Bellevue,United States,Nebraska,5063805
Bellevue,United States,Washington,5786882
Bellflower,United States,California,5327422
Bellingham,United States,Washington,5786899
Bellinzona,Switzerland,Ticino,2661567
Bellmore,United States,New York,5108707
Bello,Colombia,Antioquia,3688928
Bellshill,United Kingdom,Scotland,2655952
Belluno,Italy,Veneto,3182210
Bellview,United States,Florida,4147290
Bellwood,United States,Illinois,4884434
Belmont,United States,Massachusetts,4930282
Belmont,United States,California,5327455
Belmopan,Belize,Cayo,3582672
Belo Horizonte,Brazil,Minas Gerais,3470127
Belo Jardim,Brazil,Pernambuco,3405812
Belo Oriente,Brazil,Minas Gerais,3470117
Belo sur Tsiribihina,Madagascar,Menabe,1067531
Beloeil,Canada,Quebec,5898138
Belogorsk,Russia,Amur,2026895
Beloha,Madagascar,Androy,1067565
Beloit,United States,Wisconsin,5245387
Belonia,India,Tripura,1276502
Belorechensk,Russia,Krasnodarskiy,577893
Beloretsk,Russia,Bashkortostan,577881
Belovo,Russia,Kemerovo,1510469
Beloyarskiy,Russia,Khanty-Mansiyskiy Avtonomnyy Okrug,1510450
Belpasso,Italy,Sicily,2525571
Belper,United Kingdom,England,2655942
Belsand,India,Bihar,1276495
Belton,United States,Missouri,4376482
Belton,United States,Texas,4673425
Beltsville,United States,Maryland,4348353
Belvedere Park,United States,Georgia,4181936
Belvidere,United States,Illinois,4884453
Bemowo,Poland,Masovian Voivodeship,776251
Ben Arous,Tunisia,Bin ‘Arūs,2472479
Ben Mehidi,Algeria,El Tarf,2504486
Benavente,Spain,Castille and León,3128291
Benbrook,United States,Texas,4673482
Bend,United States,Oregon,5713587
Bende,Nigeria,Abia,2347303
Bender,Moldova,Bender,618577
Bendigo,Australia,Victoria,2176187
Bendorf,Germany,Rheinland-Pfalz,2951111
Benevento,Italy,Campania,3182179
Benevides,Brazil,Pará,3405792
Bengaluru,India,Karnataka,1277333
Bengbu,China,Anhui Sheng,1816440
Benghazi,Libya,Banghāzī,88319
Bengkulu,Indonesia,Bengkulu,1649150
Benguela,Angola,Benguela,3351663
Beni,Democratic Republic of the Congo,Nord Kivu,219057
Beni Amrane,Algeria,Boumerdes,2504739
Beni Douala,Algeria,Tizi Ouzou,2504703
Beni Khiar,Tunisia,Nābul,2472722
Beni Mellal,Morocco,Tadla-Azilal,2555745
Beni Mered,Algeria,Blida,2504622
Beni Mester,Algeria,Tlemcen,2504616
Beni Saf,Algeria,Aïn Temouchent,2504581
Benicia,United States,California,5327550
Benidorm,Spain,Valencia,2521088
Benin City,Nigeria,Edo,2347283
Benito Juarez,Mexico,Mexico City,3827406
Benoni,South Africa,Gauteng,1020098
Benoy,Chad,Logone Occidental,2435508
Bensekrane,Algeria,Tlemcen,2504385
Bensenville,United States,Illinois,4884509
Bensheim,Germany,Hesse,2950978
Bensonhurst,United States,New York,5108815
Bensonville,Liberia,Montserrado,2278682
Benthuizen,Netherlands,South Holland,2759178
Bentley,United Kingdom,England,2655882
Benton,United States,Arkansas,4101241
Bentong Town,Malaysia,Pahang,1779790
Bentonville,United States,Arkansas,4101260
Bentota,Sri Lanka,Southern,1249978
Benxi,China,Liaoning,2038300
Beolgyo,South Korea,Jeollanam-do,1839011
Beppu,Japan,Oita,1864750
Bera,Bangladesh,Rājshāhi,1209562
Berasia,India,Madhya Pradesh,1276449
Berastagi,Indonesia,North Sumatra,1215395
Berat,Albania,Berat,3186084
Berber,Sudan,River Nile,377690
Berbera,Somalia,Woqooyi Galbeed,64435
Berck,France,Nord-Pas-de-Calais-Picardie,3033415
Berck-Plage,France,Nord-Pas-de-Calais-Picardie,3033416
Berdsk,Russia,Novosibirsk,1510350
Berdychiv,Ukraine,Zhytomyr,712441
Berea,United States,Ohio,5147097
Berehove,Ukraine,Zakarpattia,712423
Berekum,Ghana,Brong-Ahafo,2303125
Berezniki,Russia,Perm,577206
Berga,Spain,Catalonia,3128201
Bergama,Turkey,İzmir,321426
Bergamo,Italy,Lombardy,3182164
Bergedorf,Germany,Hamburg,7290243
Bergeijk,Netherlands,North Brabant,2759132
Bergen,Norway,Hordaland,3161732
Bergen op Zoom,Netherlands,North Brabant,2759145
Bergenfield,United States,New Jersey,5095611
Bergerac,France,Aquitaine-Limousin-Poitou-Charentes,3033391
Bergheim,Germany,North Rhine-Westphalia,2950438
Bergisch Gladbach,Germany,North Rhine-Westphalia,2950349
Bergkamen,Germany,North Rhine-Westphalia,2950344
Bergneustadt,Germany,North Rhine-Westphalia,2950294
Bergschenhoek,Netherlands,South Holland,2759113
Beringen,Belgium,Flanders,2802170
Berja,Spain,Andalusia,2521016
Berkane,Morocco,Oriental,2555467
Berkel en Rodenrijs,Netherlands,South Holland,6929992
Berkeley,United States,California,5327684
Berkhamsted,United Kingdom,England,2655858
Berkovitsa,Bulgaria,Montana,733264
Berlin,Germany,Berlin,2950159
Berlin Treptow,Germany,Berlin,7290255
Bermeo,Spain,Basque Country,3128174
Bern,Switzerland,Bern,2661552
Bernau bei Berlin,Germany,Brandenburg,2950096
Bernburg,Germany,Saxony-Anhalt,2950073
Beroroha,Madagascar,Atsimo-Andrefana,1066831
Beroun,Czech Republic,Central Bohemia,3079467
Berrahal,Algeria,Annaba,2504136
Berrechid,Morocco,Chaouia-Ouardigha,2556272
Berriane,Algeria,Ghardaïa,2504110
Berrouaghia,Algeria,Médéa,2504099
Bertioga,Brazil,São Paulo,3470052
Bertoua,Cameroon,East,2234359
Beruniy,Uzbekistan,Karakalpakstan,1514387
Beruwala,Sri Lanka,Western,1249931
Berwick,Australia,Victoria,2176031
Berwick-Upon-Tweed,United Kingdom,England,2655819
Berwyn,United States,Illinois,4884597
Beryozovsky,Russia,Sverdlovsk,1510203
Besbes,Algeria,El Tarf,2504072
Beshariq,Uzbekistan,Fergana,1514382
Beshkent,Uzbekistan,Qashqadaryo,1217703
Beslan,Russia,North Ossetia,576697
Besni,Turkey,Adıyaman,321337
Bessemer,United States,Alabama,4048023
Best,Netherlands,North Brabant,2759040
Besuki,Indonesia,East Java,1648918
Bet Shemesh,Israel,Jerusalem,295432
Betafo,Madagascar,Vakinankaratra,1066514
Betamcherla,India,Andhra Pradesh,1276416
Bethal,South Africa,Mpumalanga,1019760
Bethany,United States,Oklahoma,4530372
Bethany,United States,Oregon,5713759
Bethel Park,United States,Pennsylvania,5180199
Bethesda,United States,Maryland,4348599
Bethlehem,Palestinian Territory,West Bank,284315
Bethlehem,South Africa,Orange Free State,1019704
Bethlehem,United States,Pennsylvania,5180225
Bethnal Green,United Kingdom,England,6690989
Bethpage,United States,New York,5108955
Betim,Brazil,Minas Gerais,3470044
Betioky,Madagascar,Atsimo-Andrefana,1066310
Betong,Thailand,Yala,1611635
Bettendorf,United States,Iowa,4848489
Bettiah,India,Bihar,1276393
Beuningen,Netherlands,Gelderland,2759016
Beveren,Belgium,Flanders,2802031
Beverley,United Kingdom,England,2655785
Beverly,United States,Massachusetts,4930505
Beverly Cove,United States,Massachusetts,4930511
Beverly Hills,United States,California,5328041
Beverungen,Germany,North Rhine-Westphalia,2949475
Beverwijk,Netherlands,North Holland,2758998
Bewar,India,Uttar Pradesh,1276381
Bexbach,Germany,Saarland,2949470
Bexhill-on-Sea,United Kingdom,England,2655777
Bexley,United Kingdom,England,2655775
Beykonak,Turkey,Antalya,305680
Beypore,India,Kerala,1276378
Bezenchuk,Russia,Samara,576590
Bezerros,Brazil,Pernambuco,3405738
Bezhetsk,Russia,Tverskaya,576566
Bezons,France,Île-de-France,3032824
Bhabhua,India,Bihar,1276371
Bhadaur,India,Punjab,1276353
Bhadohi,India,Uttar Pradesh,1276335
Bhadrakh,India,Odisha,1276325
Bhadrapur,Nepal,Eastern Region,1283628
Bhadreswar,India,West Bengal,1276320
Bhainsdehi,India,Madhya Pradesh,1276265
Bhaisa,India,Telangana,1276249
Bhakkar,Pakistan,Punjab,1182815
Bhamo,Myanmar,Kachin,1328218
Bhanjanagar,India,Odisha,1276159
Bharatpur,India,Rajasthan,1276128
Bharatpur,Nepal,Central Region,1283613
Bharthana,India,Uttar Pradesh,1276103
Bhatinda,India,Punjab,1276070
Bhatkal,India,Karnataka,1276067
Bhattiprolu,India,Andhra Pradesh,1276054
Bhawanipur,India,Bihar,7626554
Bhera,Pakistan,Punjab,1182665
Bhikangaon,India,Madhya Pradesh,1275978
Bhilai,India,Chhattisgarh,1275971
Bhimbar,Pakistan,Azad Kashmir,1182637
Bhind,India,Madhya Pradesh,1275926
Bhinga,India,Uttar Pradesh,1275921
Bhisho,South Africa,Eastern Cape,1019330
Bhiwadi,India,Rajasthan,7279747
Bhiwandi,India,Maharashtra,1275901
Bhogpur,India,Punjab,1275882
Bhola,Bangladesh,Barisāl,1336136
Bhongaon,India,Uttar Pradesh,1275849
Bhopal,India,Madhya Pradesh,1275841
Bhor,India,Maharashtra,1275836
Bhuban,India,Odisha,1275818
Bhubaneshwar,India,Odisha,1275817
Bhudgaon,India,Maharashtra,1275814
Bhuj,India,Gujarat,1275812
Bhuvanagiri,India,Tamil Nadu,1275768
Biancavilla,Italy,Sicily,2525560
Biankouma,Ivory Coast,Dix-Huit Montagnes,2291666
Bianzhuang,China,Shandong Sheng,1816406
Biaora,India,Madhya Pradesh,1275762
Biarritz,France,Aquitaine-Limousin-Poitou-Charentes,3032797
Bibai,Japan,Hokkaido,2130534
Bibiani,Ghana,Western,2303060
Bibirevo,Russia,Moscow,576432
Bicester,United Kingdom,England,2655729
Bichena,Ethiopia,Amhara,342190
Bida,Nigeria,Niger,2347209
Bidbid,Oman,Muḩāfaz̧at ad Dākhilīyah,288721
Biddeford,United States,Maine,4958141
Biddulph,United Kingdom,England,2655708
Bideford,United Kingdom,England,2655707
Bidur,Malaysia,Perak,1735287
Biel/Bienne,Switzerland,Bern,2661513
Bielany,Poland,Masovian Voivodeship,776029
Bielawa,Poland,Lower Silesian Voivodeship,3103476
Bielefeld,Germany,North Rhine-Westphalia,2949186
Biella,Italy,Piedmont,3182043
Bielsk Podlaski,Poland,Podlasie,775986
Bielsko-Biala,Poland,Silesian Voivodeship,3103402
Biesdorf,Germany,Berlin,2949073
Bietigheim-Bissingen,Germany,Baden-Württemberg,2949012
Big Spring,United States,Texas,5517061
Biga,Turkey,Çanakkale Province,750605
Biggleswade,United Kingdom,England,2655689
Bignay Uno,Philippines,Calabarzon,1725359
Bignona,Senegal,Ziguinchor,2253901
Biharamulo,Tanzania,Kagera,161154
Bihoro,Japan,Hokkaido,2127383
Bijapur,India,Karnataka,1275701
Bijeljina,Bosnia and Herzegovina,Republika Srpska,3204186
Bijelo Polje,Montenegro,Bijelo Polje,3204176
Bijie,China,Guizhou Sheng,1816373
Bijnor,India,Uttar Pradesh,1275679
Bikin,Russia,Khabarovsk Krai,2026696
Bikramganj,India,Bihar,1275655
Bila Tserkva,Ukraine,Kiev,712165
Bilderstoeckchen,Germany,North Rhine-Westphalia,6691078
Bilecik,Turkey,Bilecik,750598
Bilgi,India,Karnataka,1275619
Bilhaur,India,Uttar Pradesh,1275614
Bilicenii Vechi,Moldova,Sîngerei,617345
Bilimora,India,Gujarat,1275610
Billerica,United States,Massachusetts,4930577
Billericay,United Kingdom,England,2655672
Billingham,United Kingdom,England,2655664
Billings,United States,Montana,5640350
Billiri,Nigeria,Gombe,2347155
Bilopillya,Ukraine,Sumy,712559
Biloxi,United States,Mississippi,4418478
Bilsanda,India,Uttar Pradesh,1275593
Bilsi,India,Uttar Pradesh,1275590
Bilthra,India,Uttar Pradesh,1275589
Bilzen,Belgium,Flanders,2801924
Bima,Indonesia,West Nusa Tenggara,1648759
Bimbo,Central African Republic,Ombella-Mpoko,2388873
Binalbagan,Philippines,Western Visayas,1725157
Binangonan,Philippines,Calabarzon,1725094
Binche,Belgium,Wallonia,2801922
Bindki,India,Uttar Pradesh,1275572
Bindura,Zimbabwe,Mashonaland Central,895061
Bingen am Rhein,Germany,Rheinland-Pfalz,2948825
Bingerville,Ivory Coast,Lagunes,2291580
Binghamton,United States,New York,5109177
Bingley,United Kingdom,England,2655642
Binhe,China,Henan Sheng,1793419
Binjai,Indonesia,North Sumatra,1215355
Binka,India,Odisha,1275558
Binmaley,Philippines,Ilocos,1724956
Binnish,Syria,Idlib,171451
Binonga,Philippines,Western Visayas,1724933
Bintulu,Malaysia,Sarawak,1737486
Biny Selo,Azerbaijan,Baki,586968
Binzhou,China,Shandong Sheng,1816336
Binzhou,China,Heilongjiang Sheng,2038283
Bir el Ater,Algeria,Tébessa,2503878
Bir el Djir,Algeria,Oran,2503874
Birecik,Turkey,Şanlıurfa,321062
Birendranagar,Nepal,Mid Western,6254843
Bireun,Indonesia,Aceh,1215350
Birigui,Brazil,São Paulo,3469989
Birine,Algeria,Djelfa,2503852
Biritiba Mirim,Brazil,São Paulo,3469984
Birkenhead,United Kingdom,England,2655613
Birkhadem,Algeria,Alger,2503847
Birkirkara,Malta,Birkirkara,2563191
Birmingham,United Kingdom,England,2655603
Birmingham,United States,Alabama,4049979
Birmingham,United States,Michigan,4986172
Birmitrapur,India,Odisha,1275506
Birni N Konni,Niger,Tahoua,2437732
Birnin Kebbi,Nigeria,Kebbi,2347059
Birnin Kudu,Nigeria,Jigawa,2347057
Birobidzhan,Russia,Jewish Autonomous Oblast,2026643
Birpara,India,West Bengal,7284803
Birsk,Russia,Bashkortostan,576317
Bisauli,India,Uttar Pradesh,1275476
Bisceglie,Italy,Apulia,3182007
Bischheim,France,Alsace-Champagne-Ardenne-Lorraine,3032551
Bishkek,Kyrgyzstan,Bishkek,1528675
Bishnupur,India,West Bengal,1275462
Bishoftu,Ethiopia,Oromiya,339666
Bishop Auckland,United Kingdom,England,2655583
Bishopbriggs,United Kingdom,Scotland,2655582
Bishops Stortford,United Kingdom,England,2655562
Bishopstoke,United Kingdom,England,2655557
Biskra,Algeria,Biskra,2503826
Bislig,Philippines,Caraga,1724767
Bismarck,United States,North Dakota,5688025
Bismil,Turkey,Diyarbakır,321031
Bissau,Guinea-Bissau,Bissau,2374775
Bitkine,Chad,Guéra,2435124
Bitlis,Turkey,Bitlis,321025
Bitola,Macedonia,Bitola,792578
Bitonto,Italy,Apulia,3181995
Bitterfeld-Wolfen,Germany,Saxony,2948164
Bitung,Indonesia,North Sulawesi,1648636
Biu,Nigeria,Borno,2346995
Bixby,United States,Oklahoma,4530801
Biysk,Russia,Altai Krai,1510018
Bizerte,Tunisia,Banzart,2472706
Bjelovar,Croatia,Bjelovarsko-Bilogorska,3203982
Blackburn,United Kingdom,England,2655524
Blackheath,United Kingdom,England,6947041
Blackpool,United Kingdom,England,2655459
Blacktown,Australia,New South Wales,2175411
Blackwood,United Kingdom,Wales,3345317
Bladel,Netherlands,North Brabant,2758878
Blagnac,France,Languedoc-Roussillon-Midi-Pyrénées,3032469
Blagodarnyy,Russia,Stavropol'skiy,576172
Blagoevgrad,Bulgaria,Blagoevgrad,733191
Blagoveshchensk,Russia,Bashkortostan,576116
Blagoveshchensk,Russia,Amur,2026609
Blaine,United States,Minnesota,5018651
Blainville,Canada,Quebec,5903510
Blaj,Romania,Alba,684612
Blanchardstown,Ireland,Leinster,2966110
Blanes,Spain,Catalonia,3127978
Blankenberge,Belgium,Flanders,2801858
Blankenburg,Germany,Saxony-Anhalt,2948071
Blanquefort,France,Aquitaine-Limousin-Poitou-Charentes,3032340
Blansko,Czech Republic,South Moravian,3079273
Blantyre,Malawi,Southern Region,931755
Blenheim,New Zealand,Marlborough,6243926
Bletchley,United Kingdom,England,2655351
Blida,Algeria,Blida,2503769
Blieskastel,Germany,Saarland,2947739
Blitar,Indonesia,East Java,1648580
Bloemendaal,Netherlands,North Holland,2758804
Bloemfontein,South Africa,Orange Free State,1018725
Bloemhof,South Africa,North-West,1018673
Blois,France,Centre,3032213
Blomberg,Germany,North Rhine-Westphalia,2947641
Bloomfield,United States,New Jersey,5095779
Bloomingdale,United States,Florida,4148207
Bloomingdale,United States,Illinois,4885156
Bloomington,United States,Indiana,4254679
Bloomington,United States,Illinois,4885164
Bloomington,United States,Minnesota,5018739
Bloomington,United States,California,5329408
Blora,Indonesia,Central Java,1648568
Bloxwich,United Kingdom,England,2655329
Blue Island,United States,Illinois,4885186
Blue Springs,United States,Missouri,4377664
Bluefields,Nicaragua,Atlántico Sur,3620680
Blumenau,Brazil,Santa Catarina,3469968
Blyth,United Kingdom,England,2655315
Blythe,United States,California,5329649
Blytheville,United States,Arkansas,4102412
Bo,Sierra Leone,Southern Province,2410048
Bo Phloi,Thailand,Kanchanaburi,1153850
Boa Viagem,Brazil,Ceará,3405616
Boa Vista,Brazil,Roraima,3664980
Boaco,Nicaragua,Boaco,3620674
Boadilla del Monte,Spain,Madrid,3127958
Boardman,United States,Ohio,5147784
Bobbili,India,Andhra Pradesh,1275406
Bobigny,France,Île-de-France,3032179
Bobingen,Germany,Bavaria,2947449
Bobo-Dioulasso,Burkina Faso,High-Basins,2362344
Bobrov,Russia,Voronezj,575948
Boca Chica,Dominican Republic,Santo Domingo,3511336
Boca Del Mar,United States,Florida,4148399
Boca Raton,United States,Florida,4148411
Boca Suno,Ecuador,Orellana,3660152
Bocaue,Philippines,Central Luzon,1724489
Bochnia,Poland,Lesser Poland Voivodeship,775758
Bocholt,Germany,North Rhine-Westphalia,2947421
Bochum,Germany,North Rhine-Westphalia,2947416
Bochum-Hordel,Germany,North Rhine-Westphalia,6941055
Boda,Central African Republic,Lobaye,2388614
Bodaybo,Russia,Irkutsk,2026583
Bode Saadu,Nigeria,Kwara,2346951
Bodegraven,Netherlands,South Holland,2758765
Boden,Sweden,Norrbotten,606531
Bodhan,India,Telangana,1275391
Bodrum,Turkey,Muğla,320995
Boende,Democratic Republic of the Congo,Équateur,218680
Bogale,Myanmar,Ayeyarwady,1328121
Bogatynia,Poland,Lower Silesian Voivodeship,3103096
Bogdanovich,Russia,Sverdlovsk,1509888
Bogenhausen,Germany,Bavaria,2947022
Boghni,Algeria,Tizi Ouzou,2503755
Bognor Regis,United Kingdom,England,2655262
Bogo,Philippines,Central Visayas,1724435
Bogo,Cameroon,Far North,2233805
Bogor,Indonesia,West Java,1648473
Bogoroditsk,Russia,Tula,575591
Bogorodsk,Russia,Nizjnij Novgorod,575560
Bogorodskoye,Russia,MO,575505
Bogotol,Russia,Krasnoyarskiy,1509852
Bogovinje,Macedonia,Bogovinje,792501
Bogra,Bangladesh,Rājshāhi,1337233
Boguchar,Russia,Voronezj,575457
Bohicon,Benin,Zou,2395049
Bohodukhiv,Ukraine,Kharkiv,711894
Bohuslav,Ukraine,Kiev,711867
Boiro,Spain,Galicia,3127889
Boisar,India,Maharashtra,1275368
Boisbriand,Canada,Quebec,5905132
Bois-Colombes,France,Île-de-France,3032070
Boise,United States,Idaho,5586437
Boituva,Brazil,São Paulo,3469540
Bojia,China,Hunan,1929434
Bojonegoro,Indonesia,East Java,1648451
Boksburg,South Africa,Gauteng,1017780
Boksitogorsk,Russia,Leningrad,575410
Boldumsaz,Turkmenistan,Daşoguz,601661
Bolgatanga,Ghana,Upper East,2302821
Bolhrad,Ukraine,Odessa,711841
Boli,China,Heilongjiang Sheng,2038274
Bolingbrook,United States,Illinois,4885265
Bollate,Italy,Lombardy,3181931
Bolobo,Democratic Republic of the Congo,Bandundu,2316748
Bologna,Italy,Emilia-Romagna,3181928
Bologoye,Russia,Tverskaya,575349
Bolotnoye,Russia,Novosibirsk,1509819
Bolpur,India,West Bengal,1275346
Bolton,United Kingdom,England,2655237
Bolu,Turkey,Bolu,750516
Bolvadin,Turkey,Afyonkarahisar,320879
Bolzano,Italy,Trentino-Alto Adige,3181913
Bom Conselho,Brazil,Pernambuco,3405380
Bom Despacho,Brazil,Minas Gerais,3469516
Bom Jesus da Lapa,Brazil,Bahia,3469437
Bom Jesus do Itabapoana,Brazil,Rio de Janeiro,3469425
Bonao,Dominican Republic,Monseñor Nouel,3511233
Bondo,Democratic Republic of the Congo,Eastern Province,218253
Bondoukou,Ivory Coast,Zanzan,2291136
Bondowoso,Indonesia,East Java,1648266
Bondy,France,Île-de-France,3031815
Bonga,Ethiopia,"Southern Nations, Nationalities, and People's Region",341742
Bongabon,Philippines,Central Luzon,1724106
Bongaigaon,India,Assam,1275321
Bongao,Philippines,Autonomous Region in Muslim Mindanao,1724088
Bongor,Chad,Mayo-Kebbi Est,2434910
Bongouanou,Ivory Coast,Lacs,2291113
Bonita Springs,United States,Florida,4148533
Bonn,Germany,North Rhine-Westphalia,2946447
Bonneuil-sur-Marne,France,Île-de-France,3031709
Bonney Lake,United States,Washington,5787776
Bonny,Nigeria,Rivers,2346812
Bonoua,Ivory Coast,Sud-Comoé,2291087
Bontang,Indonesia,East Kalimantan,1648186
Boo,Sweden,Stockholm,2721259
Boom,Belgium,Flanders,2801494
Boone,United States,North Carolina,4456703
Bootle,United Kingdom,England,2655198
Booval,Australia,Queensland,7932654
Boppard,Germany,Rheinland-Pfalz,2946366
Bor,Turkey,Niğde,320871
Bor,South Sudan,Jonglei,377241
Bor,Russia,Nizjnij Novgorod,572665
Bor,Serbia,Central Serbia,792456
Bordeaux,France,Aquitaine-Limousin-Poitou-Charentes,3031582
Bordj Bou Arreridj,Algeria,Bordj Bou Arréridj,2503701
Bordj el Kiffan,Algeria,Alger,2503661
Bordj Ghdir,Algeria,Bordj Bou Arréridj,2503654
Bordj Zemoura,Algeria,Bordj Bou Arréridj,2503620
Borehamwood,United Kingdom,England,2655186
Borger,Netherlands,Drenthe,2758621
Borgomanero,Italy,Piedmont,3181790
Borisoglebsk,Russia,Voronezj,572525
Borivli,India,Maharashtra,1275248
Borken,Germany,North Rhine-Westphalia,2946228
Bormujos,Spain,Andalusia,2520833
Born,Netherlands,Limburg,2758602
Borna,Germany,Saxony,2946172
Borne,Netherlands,Overijssel,2758598
Bornem,Belgium,Flanders,2801447
Bornheim,Germany,North Rhine-Westphalia,2946111
Borodino,Russia,Krasnoyarskiy,1508943
Borongan,Philippines,Eastern Visayas,1723893
Boronia,Australia,Victoria,2174580
Boroon,Philippines,Northern Mindanao,1722356
Borough of Queens,United States,New York,5133273
Borovichi,Russia,Novgorod,572154
Borovskiy,Russia,Tjumen,1508879
Borsad,India,Gujarat,1275230
Borssele,Netherlands,Zeeland,2758587
Boryslav,Ukraine,Lviv,711669
Borzya,Russia,Transbaikal Territory,2026126
Bosanska Krupa,Bosnia and Herzegovina,Federation of Bosnia and Herzegovina,3203653
Bosaso,Somalia,Bari,64013
Boscoreale,Italy,Campania,3181683
Boshan,China,Shandong Sheng,1816265
Boshkengash,Tajikistan,Dushanbe,1222107
Boskoop,Netherlands,South Holland,2758547
Bossangoa,Central African Republic,Ouham,2388036
Bossier City,United States,Louisiana,4317639
Boston,United Kingdom,England,2655138
Boston,United States,Massachusetts,4930956
Bostonia,United States,California,5330167
Botevgrad,Bulgaria,Sofiya,733014
Bothaville,South Africa,Orange Free State,1016698
Bothell,United States,Washington,5787829
Botolan,Philippines,Central Luzon,1723822
Botou,China,Hebei,1816256
Botshabelo,South Africa,Orange Free State,1016670
Bottrop,Germany,North Rhine-Westphalia,2945756
Botucatu,Brazil,São Paulo,3469136
Bou Hanifia el Hamamat,Algeria,Mascara,2503033
Bou Tlelis,Algeria,Oran,2502239
Bouar,Central African Republic,Nana-Mambéré,2387926
Boucherville,Canada,Quebec,5906267
Boudjima,Algeria,Tizi Ouzou,2503237
Boudouaou,Algeria,Boumerdes,2503229
Boufarik,Algeria,Blida,2503181
Bougaa,Algeria,Sétif,2503156
Bougado,Portugal,Porto,2742051
Bougara,Algeria,Blida,2503147
Bougouni,Mali,Sikasso,2459775
Bouguenais,France,Pays de la Loire,3031268
Bouinan,Algeria,Blida,2502962
Boujniba,Morocco,Chaouia-Ouardigha,6546693
Boukadir,Algeria,Chlef,2502924
Boulder,United States,Colorado,5574991
Boulder City,United States,Nevada,5500539
Boulogne-Billancourt,France,Île-de-France,3031137
Boulogne-sur-Mer,France,Nord-Pas-de-Calais-Picardie,3031133
Boulsa,Burkina Faso,Centre-Nord,2361946
Boumahra Ahmed,Algeria,Guelma,2502686
Boumerdas,Algeria,Boumerdes,2474141
Bouna,Ivory Coast,Zanzan,2290849
Boundiali,Ivory Coast,Savanes,2290836
Bountiful,United States,Utah,5771826
Bourbonnais,United States,Illinois,4885342
Bourg-en-Bresse,France,Auvergne-Rhône-Alpes,3031009
Bourges,France,Centre,3031005
Bourg-la-Reine,France,Île-de-France,3030990
Bourgoin,France,Auvergne-Rhône-Alpes,3030960
Bourgoin-Jallieu,France,Auvergne-Rhône-Alpes,6615539
Bournemouth,United Kingdom,England,2655095
Boussu,Belgium,Wallonia,2801226
Bouznika,Morocco,Chaouia-Ouardigha,2553751
Bovisio-Masciago,Italy,Lombardy,3181641
Bowie,United States,Maryland,4349159
Bowling Green,United States,Kentucky,4285268
Bowling Green,United States,Ohio,5147968
Bowthorpe,United Kingdom,England,6620355
Boxtel,Netherlands,North Brabant,2758460
Boyabat,Turkey,Sinop,750468
Boyarka,Ukraine,Kiev,711515
Boyeros,Cuba,La Habana,6956647
Boyle Heights,United States,California,5330413
Boynton Beach,United States,Florida,4148677
Boyolali,Indonesia,Central Java,1648084
Boyolangu,Indonesia,East Java,1648082
Boysun,Uzbekistan,Surxondaryo,1217734
Bozeman,United States,Montana,5641727
Bozhou,China,Anhui Sheng,1816234
Bozoum,Central African Republic,Ouham-Pendé,2387546
Bozova,Turkey,Şanlıurfa,320581
Bra,Italy,Piedmont,3181631
Bracken Ridge,Australia,Queensland,6943558
Brackenheim,Germany,Baden-Württemberg,2945591
Bracknell,United Kingdom,England,2655009
Brad,Romania,Hunedoara,683974
Bradenton,United States,Florida,4148708
Brades,Montserrat,Saint Peter,7266440
Bradford,United Kingdom,England,2654993
Bradford West Gwillimbury,Canada,Ontario,5907180
Bradley,United States,Illinois,4885418
Braga,Portugal,Braga,2742032
Brahmapur,India,Odisha,1275198
Braine-l'Alleud,Belgium,Wallonia,2801154
Braine-le-Comte,Belgium,Wallonia,2801150
Braintree,United Kingdom,England,2654938
Braintree,United States,Massachusetts,4931181
Brak,Libya,Ash Shāţiʼ,2218478
Brake (Unterweser),Germany,Lower Saxony,2945545
Brakel,Germany,North Rhine-Westphalia,2945542
Brakpan,South Africa,Gauteng,1016181
Bramhall,United Kingdom,England,2654927
Brampton,Canada,Ontario,5907364
Bramsche,Germany,Lower Saxony,2945474
Brandenburg an der Havel,Germany,Brandenburg,2945358
Brandon,United States,Florida,4148757
Brandon,United States,Mississippi,4419290
Brandon,Canada,Manitoba,5907896
Branford,United States,Connecticut,5283054
Braniewo,Poland,Warmian-Masurian Voivodeship,3102677
Brant,Canada,Ontario,5907983
Brantford,Canada,Ontario,5907990
Brasschaat,Belgium,Flanders,2801117
Brateyevo,Russia,Moscow,571741
Bratislava,Slovakia,Bratislavský,3060972
Bratsk,Russia,Irkutsk,2051523
Braunau am Inn,Austria,Upper Austria,2781520
Braunschweig,Germany,Lower Saxony,2945024
Brawley,United States,California,5330567
Brazzaville,Republic of the Congo,Brazzaville,2260535
Brea,United States,California,5330582
Breaza,Romania,Prahova,683760
Brecht,Belgium,Flanders,2801106
Breda,Netherlands,North Brabant,2758401
Bredbury,United Kingdom,England,2654814
Bregenz,Austria,Vorarlberg,2781503
Brejo da Madre de Deus,Brazil,Pernambuco,3404862
Brejo Santo,Brazil,Ceará,3404833
Bremen,Germany,Bremen,2944388
Bremerhaven,Germany,Bremen,2944368
Bremerton,United States,Washington,5788054
Brenham,United States,Texas,4676206
Brent,United States,Florida,4148803
Brentwood,United Kingdom,England,2654782
Brentwood,United States,Tennessee,4608408
Brentwood,United States,New York,5110077
Brentwood,United States,California,5330642
Brentwood Estates,United States,Tennessee,4608418
Brescia,Italy,Lombardy,3181554
Bressanone,Italy,Trentino-Alto Adige,3181550
Bresso,Italy,Lombardy,3181548
Bressuire,France,Aquitaine-Limousin-Poitou-Charentes,3030303
Brest,Belarus,Brest,629634
Brest,France,Brittany,3030300
Bretten,Germany,Baden-Württemberg,2944200
Breves,Brazil,Pará,3404817
Brezina,Algeria,El Bayadh,2502034
Brezno,Slovakia,Banskobystrický,3060950
Bria,Central African Republic,Haute-Kotto,239899
Bridgend,United Kingdom,Wales,2654755
Bridgeport,United States,Connecticut,5282804
Bridgeton,United States,New Jersey,4500942
Bridgetown,Barbados,Saint Michael,3374036
Bridgeview,United States,Illinois,4885573
Bridgewater,United States,New Jersey,8299576
Bridgwater,United Kingdom,England,2654730
Bridlington,United Kingdom,England,2654728
Brie-Comte-Robert,France,Île-de-France,3030101
Brierley Hill,United Kingdom,England,2654724
Brigham City,United States,Utah,5771960
Brighouse,United Kingdom,England,2654715
Brighton,United Kingdom,England,2654710
Brighton,United States,New York,5110159
Brighton,United States,Colorado,5414941
Brighton East,Australia,Victoria,7932646
Brignoles,France,Provence-Alpes-Côte d'Azur,3030057
Brikama,Gambia,Western,2413753
Brilon,Germany,North Rhine-Westphalia,2944079
Brindisi,Italy,Apulia,3181528
Brisbane,Australia,Queensland,2174003
Bristol,United Kingdom,England,2654675
Bristol,United States,Tennessee,4608657
Bristol,United States,Rhode Island,5221077
Bristol,United States,Connecticut,5282835
Briton Ferry,United Kingdom,Wales,2654668
Brits,South Africa,North-West,1015621
Britz,Germany,Berlin,2944027
Brive-la-Gaillarde,France,Aquitaine-Limousin-Poitou-Charentes,3029974
Brixham,United Kingdom,England,2654663
Brixton,United Kingdom,England,6690877
Brno,Czech Republic,South Moravian,3078610
Broad Ripple,United States,Indiana,4254957
Broadstairs,United Kingdom,England,2654635
Broadview Heights,United States,Ohio,5148273
Brockton,United States,Massachusetts,4931429
Brockville,Canada,Ontario,5909294
Brodnica,Poland,Kujawsko-Pomorskie,3102627
Brody,Ukraine,Lviv,711416
Broek in Waterland,Netherlands,North Holland,2758258
Broek op Langedijk,Netherlands,North Holland,2758245
Broken Arrow,United States,Oklahoma,4531405
Broken Hill,Australia,New South Wales,2173911
Bromma,Sweden,Stockholm,2719111
Bromsgrove,United Kingdom,England,2654579
Bron,France,Auvergne-Rhône-Alpes,3029931
Bronkhorstspruit,South Africa,Gauteng,1015504
Bronnitsy,Russia,MO,571557
Bronte,Italy,Sicily,2525498
Brook Park,United States,Ohio,5148326
Brookfield,United States,Illinois,4885689
Brookfield,United States,Wisconsin,5246835
Brookhaven,United States,Georgia,4184530
Brookings,United States,South Dakota,5226534
Brookline,United States,Massachusetts,4931482
Brooklyn,United States,New York,5110302
Brooklyn Center,United States,Minnesota,5019330
Brooklyn Park,United States,Minnesota,5019335
Broomfield,United States,Colorado,5415035
Brossard,Canada,Quebec,5909629
Brotas,Brazil,São Paulo,3468899
Brovary,Ukraine,Kiev,711390
Brownhills,United Kingdom,England,2654490
Brownsburg,United States,Indiana,4255056
Brownsville,United States,Florida,4149077
Brownsville,United States,Texas,4676740
Brownwood,United States,Texas,4676798
Bruchsal,Germany,Baden-Württemberg,2943560
Brugge,Belgium,Flanders,2800931
Brugherio,Italy,Lombardy,3181495
Brumadinho,Brazil,Minas Gerais,3468894
Brumado,Brazil,Bahia,3468893
Brummen,Netherlands,Gelderland,2758177
Brunoy,France,Île-de-France,3029748
Brunssum,Netherlands,Limburg,2758174
Brunswick,Australia,Victoria,2173741
Brunswick,United States,Georgia,4184845
Brunswick,United States,Maine,4959473
Brunswick,United States,Ohio,5148480
Brusciano,Italy,Campania,3181471
Brushy Creek,United States,Texas,4676920
Brusque,Brazil,Santa Catarina,3468879
Brussels,Belgium,Brussels Capital,2800866
Brvenica,Macedonia,Brvenica,792227
Bryan,United States,Texas,4677008
Bryanka,Ukraine,Luhansk,711369
Bryansk,Russia,Brjansk,571476
Bryant,United States,Arkansas,4103448
Brymbo,United Kingdom,Wales,2654450
Bryn Mawr-Skyway,United States,Washington,7260966
Bry-sur-Marne,France,Île-de-France,3029706
Bryukhovetskaya,Russia,Krasnodarskiy,571420
Brzeg,Poland,Opole Voivodeship,3102459
Brzesko,Poland,Lesser Poland Voivodeship,775183
Bua Yai,Thailand,Nakhon Ratchasima,1611492
Buaran,Indonesia,Central Java,1647991
Bucak,Turkey,Burdur,320533
Bucaramanga,Colombia,Santander,3688465
Bucha,Ukraine,Kiev,711350
Buchanan,Liberia,Grand Bassa,2278158
Bucharest,Romania,Bucureşti,683506
Buchen,Germany,Baden-Württemberg,2942634
Bucheon-si,South Korea,Gyeonggi-do,1838716
Buchholz in der Nordheide,Germany,Lower Saxony,2942323
Buckeye,United States,Arizona,5287262
Buckhaven,United Kingdom,Scotland,2654415
Buckley,United Kingdom,Wales,2654394
Buckow,Germany,Berlin,2942122
Budapest,Hungary,Budapest,3054643
Budaun,India,Uttar Pradesh,1275163
Buddh Gaya,India,Bihar,1275389
Buderim,Australia,Queensland,2173605
Budta,Philippines,Autonomous Region in Muslim Mindanao,1723510
Buduran,Indonesia,East Java,1647936
Budva,Montenegro,Budva,3203106
Buea,Cameroon,South-West Province,2233410
Buena Park,United States,California,5331575
Buenaventura,Colombia,Valle del Cauca,3688451
Buenaventura,Colombia,Valle del Cauca,3688452
Buenaventura Lakes,United States,Florida,4149269
Buenavista,Philippines,Caraga,1723481
Buenavista,Mexico,México,3827606
Buenos Aires,Argentina,Buenos Aires F.D.,3435910
Buerarema,Brazil,Bahia,3468858
Buffalo,United States,Minnesota,5019588
Buffalo,United States,New York,5110629
Buffalo Grove,United States,Illinois,4885955
Buftea,Romania,Ilfov,683394
Buga,Colombia,Valle del Cauca,3688256
Bugarama,Tanzania,Kagera,161023
Bugiri,Uganda,Eastern Region,234565
Bugo,Philippines,Northern Mindanao,1723257
Bugojno,Bosnia and Herzegovina,Federation of Bosnia and Herzegovina,3203099
Buguma,Nigeria,Rivers,2346615
Buguruslan,Russia,Orenburg,571159
Buhe,China,Hubei,1816221
Buhi,Philippines,Bicol,1723166
Buin,Chile,Santiago Metropolitan,3897774
Buinsk,Russia,Tatarstan,571155
Bujumbura,Burundi,Bujumbura Mairie,425378
Bukama,Democratic Republic of the Congo,Katanga,217834
Bukavu,Democratic Republic of the Congo,South Kivu,217831
Bukhara,Uzbekistan,Bukhara,1217662
Bukit Mertajam,Malaysia,Penang,1735079
Bukit Rambai,Malaysia,Melaka,1778290
Bukittinggi,Indonesia,West Sumatra,1647866
Bukoba,Tanzania,Kagera,160961
Bukuru,Nigeria,Plateau,2346561
Bulacan,Philippines,Central Luzon,1723066
Bulakamba,Indonesia,Central Java,1647834
Bulan,Philippines,Bicol,1722985
Bulancak,Turkey,Giresun,750317
Bulandshahr,India,Uttar Pradesh,1275120
Bulaon,Philippines,Central Luzon,1722930
Bulawayo,Zimbabwe,Bulawayo,894701
Bulgan,Mongolia,Bulgan,2032201
Bullhead City,United States,Arizona,5287565
Bulolo,Papua New Guinea,Morobe,2098869
Buluan,Philippines,Autonomous Region in Muslim Mindanao,1722818
Bulungu,Democratic Republic of the Congo,Bandundu,2316259
Bumba,Democratic Republic of the Congo,Équateur,217745
Bunawan,Philippines,Caraga,1722731
Bunbury,Australia,Western Australia,2075432
Bunda,Tanzania,Mara,160892
Bundaberg,Australia,Queensland,2173323
Bundibugyo,Uganda,Western Region,234178
Bundoora,Australia,Victoria,8349381
Bungoma,Kenya,Bungoma,200067
Bungo-Takada-shi,Japan,Oita,1851170
Bungu,Tanzania,Pwani,160877
Bunia,Democratic Republic of the Congo,Eastern Province,217695
Bunschoten,Netherlands,Utrecht,2758104
Burao,Somalia,Togdheer,63795
Buraydah,Saudi Arabia,Al-Qassim,107304
Burbank,United States,Illinois,4885983
Burbank,United States,California,5331835
Burdur,Turkey,Burdur,320392
Burg bei Magdeburg,Germany,Saxony-Anhalt,2941501
Burg Unter-Falkenstein,Germany,Bavaria,8378906
Burgas,Bulgaria,Burgas,732770
Burgdorf,Germany,Lower Saxony,2941405
Burgess Hill,United Kingdom,England,2654308
Burghausen,Germany,Bavaria,2941279
Burgos,Philippines,Central Luzon,1722433
Burgos,Spain,Castille and León,3127461
Burhaniye,Turkey,Balıkesir,320369
Burhar,India,Madhya Pradesh,1275066
Buri,Brazil,São Paulo,3468802
Burien,United States,Washington,5788516
Buriram,Thailand,Buriram,1611453
Buriti Bravo,Brazil,Maranhão,3404722
Buritis,Brazil,Minas Gerais,3468732
Buritizeiro,Brazil,Minas Gerais,3468720
Burjassot,Spain,Valencia,2520712
Burla,India,Odisha,1275050
Burlata,Spain,Navarre,3127451
Burleson,United States,Texas,4677551
Burlingame,United States,California,5331920
Burlington,United States,Kentucky,4286281
Burlington,United States,North Carolina,4458228
Burlington,United States,Iowa,4849826
Burlington,United States,Massachusetts,4931737
Burlington,United States,Vermont,5234372
Burlington,Canada,Ontario,5911592
Burnaby,Canada,British Columbia,5911606
Burnham-on-Sea,United Kingdom,England,2654269
Burnie,Australia,Tasmania,2173125
Burnley,United Kingdom,England,2654264
Burnsville,United States,Minnesota,5019767
Burntwood,United Kingdom,England,2654252
Burrel,Albania,Dibër,783493
Burriana,Spain,Valencia,2520709
Bursa,Turkey,Bursa,750269
Burscheid,Germany,North Rhine-Westphalia,2940942
Burton,United States,Michigan,4987482
Burton upon Trent,United Kingdom,England,2654200
Burunday,Kazakhstan,Almaty Oblysy,1524958
Bururi,Burundi,Bururi,423328
Burutu,Nigeria,Delta,2346317
Bury,United Kingdom,England,2654187
Bury St Edmunds,United Kingdom,England,2654186
Busan,South Korea,Busan,1838524
Busembatia,Uganda,Eastern Region,234092
Buseresere,Tanzania,Geita,160833
Bushey,United Kingdom,England,2654179
Busia,Kenya,Busia,199989
Busia,Uganda,Eastern Region,234077
Businga,Democratic Republic of the Congo,Équateur,217637
Businovo,Russia,Moscow,570636
Busselton,Australia,Western Australia,2075265
Bussolengo,Italy,Veneto,3181359
Bussum,Netherlands,North Holland,2758064
Busto Arsizio,Italy,Lombardy,3181355
Bustos,Philippines,Central Luzon,1722267
Buta,Democratic Republic of the Congo,Eastern Province,217570
Butare,Rwanda,Southern Province,203112
Butel,Macedonia,Butel,833260
Butembo,Democratic Republic of the Congo,Nord Kivu,217562
Butha-Buthe,Lesotho,Butha-Buthe,932886
Butiama,Tanzania,Mara,160798
Butte,United States,Montana,5642934
Butterworth,South Africa,Eastern Cape,1014489
Butterworth,Malaysia,Penang,1735076
Butte-Silver Bow (Balance),United States,Montana,7172886
Butuan,Philippines,Caraga,1722186
Buturlinovka,Russia,Voronezj,570563
Butzbach,Germany,Hesse,2940512
Buulobarde,Somalia,Hiiraan,63689
Buurhakaba,Somalia,Bay,63571
Buwenge,Uganda,Eastern Region,233886
Buxar,India,Bihar,1275019
Buxtehude,Germany,Lower Saxony,2940451
Buxton,United Kingdom,England,2654141
Buy,Russia,Kostroma,570508
Buynaksk,Russia,Dagestan,570479
Buzen,Japan,Fukuoka,8198709
Buzovna,Azerbaijan,Baki,586925
Buzuluk,Russia,Orenburg,570427
Bwizibwera,Uganda,Western Region,233730
Byaroza,Belarus,Brest,629454
Bydgoszcz,Poland,Kujawsko-Pomorskie,3102014
Bykhaw,Belarus,Mogilev,629447
Byndoor,India,Karnataka,1277759
Bytom,Poland,Silesian Voivodeship,3101950
Byumba,Rwanda,Northern Province,203104
